RCM-1                   
1 44322U 19033A   26196.96714713  .00000532  00000+0  57114-4 0  9994
2 44322  97.7603 204.0074 0001514  92.7684 298.0250 14.92587170386370
RCM-3                   
1 44323U 19033B   26196.98404501 -.00000056  00000+0 -17898-7 0  9999
2 44323  97.7603 204.1185 0001502  91.1940 268.9451 14.92586625386395
RCM-2                   
1 44324U 19033C   26197.00625146  .00000127  00000+0  17731-4 0  9994
2 44324  97.7604 204.0907 0001530  91.1737 268.9658 14.92587628386385
