{"fetched_at":"2026-07-16T06:43:15.891Z","source":"https://celestrak.org/NORAD/elements/gp.php?NAME=RCM&FORMAT=JSON","constellation":"rcm","records":[{"OBJECT_NAME":"RCM-1","OBJECT_ID":"2019-033A","EPOCH":"2026-07-15T23:12:41.512032","CLASSIFICATION_TYPE":"U","MEAN_MOTION":14.9258717,"ECCENTRICITY":0.0001514,"INCLINATION":97.7603,"RA_OF_ASC_NODE":204.0074,"ARG_OF_PERICENTER":92.7684,"MEAN_ANOMALY":298.025,"EPHEMERIS_TYPE":0,"NORAD_CAT_ID":44322,"ELEMENT_SET_NO":999,"REV_AT_EPOCH":38637,"BSTAR":0.000057114239,"MEAN_MOTION_DOT":0.00000532,"MEAN_MOTION_DDOT":0},{"OBJECT_NAME":"RCM-3","OBJECT_ID":"2019-033B","EPOCH":"2026-07-15T23:37:01.488864","CLASSIFICATION_TYPE":"U","MEAN_MOTION":14.92586625,"ECCENTRICITY":0.00015028,"INCLINATION":97.7603,"RA_OF_ASC_NODE":204.1185,"ARG_OF_PERICENTER":91.194,"MEAN_ANOMALY":268.9451,"EPHEMERIS_TYPE":0,"NORAD_CAT_ID":44323,"ELEMENT_SET_NO":999,"REV_AT_EPOCH":38639,"BSTAR":-1.7898e-8,"MEAN_MOTION_DOT":-5.6e-7,"MEAN_MOTION_DDOT":0},{"OBJECT_NAME":"RCM-2","OBJECT_ID":"2019-033C","EPOCH":"2026-07-16T00:09:00.126144","CLASSIFICATION_TYPE":"U","MEAN_MOTION":14.92587628,"ECCENTRICITY":0.00015307,"INCLINATION":97.7604,"RA_OF_ASC_NODE":204.0907,"ARG_OF_PERICENTER":91.1737,"MEAN_ANOMALY":268.9658,"EPHEMERIS_TYPE":0,"NORAD_CAT_ID":44324,"ELEMENT_SET_NO":999,"REV_AT_EPOCH":38638,"BSTAR":0.000017731439,"MEAN_MOTION_DOT":0.00000127,"MEAN_MOTION_DDOT":0}]}
